[{"OBJECT_NAME":"UHETSAT","OBJECT_ID":"2023-185E","EPOCH":"2026-03-09T22:39:26.455680","MEAN_MOTION":15.29797662,"ECCENTRICITY":0.00118435,"INCLINATION":97.3584,"RA_OF_ASC_NODE":137.3576,"ARG_OF_PERICENTER":307.7346,"MEAN_ANOMALY":52.2821,"EPHEMERIS_TYPE":0,"CLASSIFICATION_TYPE":"U","NORAD_CAT_ID":58466,"ELEMENT_SET_NO":999,"REV_AT_EPOCH":12611,"BSTAR":0.00030513019,"MEAN_MOTION_DOT":8.749e-5,"MEAN_MOTION_DDOT":0},{"OBJECT_NAME":"STARLINK-35814","OBJECT_ID":"2025-268V","EPOCH":"2026-03-09T03:13:21.906912","MEAN_MOTION":15.27582152,"ECCENTRICITY":0.00011063,"INCLINATION":42.9983,"RA_OF_ASC_NODE":350.2959,"ARG_OF_PERICENTER":6.0102,"MEAN_ANOMALY":354.0763,"EPHEMERIS_TYPE":0,"CLASSIFICATION_TYPE":"U","NORAD_CAT_ID":66576,"ELEMENT_SET_NO":999,"REV_AT_EPOCH":1787,"BSTAR":0.001458703,"MEAN_MOTION_DOT":0.00040099,"MEAN_MOTION_DDOT":0}]
